#dP2022  1 31  0  0  0.00000000      97 __u+U IGS14 FIT  IAC
## 2195  86400.00000000   900.00000000 59610 0.0000000000000
+  122   C01C02C03C04C05C06C07C08C09C10C11C12C13C14C16C19C20
+        C21C22C23C24C25C26C27C28C29C30C32C33C34C35C36C37C39
+        C40C41C42C43C44C45C46C60E01E02E03E04E05E07E08E09E11
+        E12E13E14E15E18E19E21E24E25E26E27E30E31E33E36G01G02
+        G03G04G05G06G07G08G09G10G11G12G13G14G15G16G17G18G19
+        G20G21G22G23G24G25G26G27G28G29G30G31G32J01J02J03J07
+        R01R02R03R04R05R07R08R09R11R12R13R14R15R17R18R19R20
+        R21R22R24  0  0  0  0  0  0  0  0  0  0  0  0  0  0
++        15 15 15 15 15  9  9  9  8  9  8  8  8  8  9  7  7
++         7  7  7  7  7  7  7  7  7  7  7  7  7  7  7  7  8
++         7  7  7  7  7  7  7 15  5  4  4  4  4  4  4  4  4
++         4  4  4  4  5  4  4  4  4  5  4  4  4  4  4  3  4
++         3  4  4  3  4  3  4  3  4  3  4  3  4  4  3  3  3
++         4  3  4  3  3  3  4  4  4  4  3  4  3  8  8  8 17
++         7  6  6  6  6  6  6  6  7  6  7  6  5  5  5  7  7
++         6  7  5  0  0  0  0  0  0  0  0  0  0  0  0  0  0
%c M  cc GPS ccc cccc cccc cccc cccc ccccc ccccc ccccc ccccc
%c cc cc ccc ccc cccc cccc cccc cccc ccccc ccccc ccccc ccccc
%f  1.2500000  1.025000000  0.00000000000  0.000000000000000
%f  0.0000000  0.000000000  0.00000000000  0.000000000000000
%i    0    0    0    0      0      0      0      0         0
%i    0    0    0    0      0      0      0      0         0
/* INFORMATION & ANALYSIS CENTER (IAC)            FINAL DATA
/* S/V CLOCKS ARE ALIGNED TO GNSS TIME                      
/* G:C1WC2W R:C1PC2P E:C1XC5X C:C2IC6I J:C1CC2S             
/* PCV:IGS14_2194 OL/AL:FES2004  NONE     YN ORB:CoN CLK:CoN
*  2022 01 31 14 45  0.00000000
PC01 -34321.885539  24474.861994    391.150640   -178.373245
PC02   4282.086086  41928.126652   -181.144726    658.731728
PC03 -14823.673307  39432.969689    716.659740    703.218113
PC04 -39603.854889  14420.348436    686.815724   -377.917766
PC05  21755.941800  36093.102070   -559.126571   -498.622963
PC06 -11551.006062  23087.704606 -33372.838308    -29.299507
PC07 -15026.036756  38670.536532   7084.724109      4.115849
PC08    670.157698  33944.199121  25115.106579    100.653849
PC09  -1567.704414  24347.406082 -34059.755257   -482.351869
PC10  -8859.336603  38804.105528  13437.708709    139.825957
PC11   -280.238714 -15358.696060 -23226.496243   -236.744894
PC12  19097.571104  -9915.501974 -17732.060424   -435.609421
PC13   5578.461132  37118.020687  19611.817160   -130.449825
PC14   6096.769712 -24236.084802  12492.548428    460.733319
PC16 -13801.428775  22032.982845 -33116.769972     70.668499
PC19   2287.722286  20074.571029 -19218.178081    903.157418
PC20 -12243.062696  24474.913918  -5386.106514   -813.991068
PC21  20341.139999 -14428.674076 -12521.340611   -964.388487
PC22  16093.631913   3870.445988 -22468.073140   -958.142106
PC23 -18586.923910 -14795.754829 -14636.268153   -971.165923
PC24   4123.678798 -21138.891549  17710.464613   -943.985757
PC25 -11601.790783 -25327.449673   1370.296044   -786.297532
PC26  15202.831498  -5879.809676  22637.281896    785.730071
PC27 -25336.187197   4983.898535  10590.372543    670.073874
PC28 -26122.899864  -7123.481418  -6749.659561     27.296868
PC29  11963.353614  14811.069246  20396.358158    508.861209
PC30 -10025.056083  14480.089812  21649.102821    492.365000
PC32 -20249.575698  14496.511801  12603.709632   -961.451069
PC33  -2357.719277 -20144.427576  19178.680154   -955.335560
PC34   8948.030281 -14769.172538 -21922.918700   -479.463907
PC35  26047.525617   6657.585857   7404.177311    118.349119
PC36  10712.646071  25708.290612  -1826.317204   -886.245655
PC37 -15802.971132   4411.691383 -22562.984668   -959.025346
PC39 -18850.698364  21383.364440 -31107.382191     34.730529
PC40 -21396.734877  35780.777263   5659.157049    240.408322
PC41 -15919.207966  -4305.858733  22563.609043   -930.184893
PC42  12810.834761 -24389.377050   4535.717520   -929.612421
PC43 -11235.786542 -15112.289857 -20607.738607   -944.602350
PC44  25213.315726  -5827.856540 -10403.552655    549.654735
PC45  18562.359856  14644.009898  14840.839459    668.313690
PC46  -2937.820524  22014.447096 -16927.162157   -143.865579
PC60   7295.099869  41492.366801   1594.727726     -0.267362
PE01 -14589.346402  16354.786624 -19905.324579   -570.128795
PE02  14537.969480 -16471.401938  19819.670905    277.215007
PE03  25293.617055 -15076.889434   3053.749471   -522.872999
PE04 -10462.835189  20187.783031 -18951.098258   -954.630389
PE05  25533.066046  -1002.589774 -14938.883507   -213.440563
PE07 -10913.666349 -13464.669440  23997.540348   -634.210960
PE08  10010.228767 -20107.544772  19280.385265   5863.040322
PE09  11137.137233  13151.826108 -24066.722416   5376.224503
PE11  19358.104936  20159.721068   9721.888052   4557.982909
PE12    376.813765  18315.881016  23250.549225   4782.620405
PE13 -18979.155588 -20233.792109 -10324.720657    426.140967
PE14  24641.466795   2708.146573  10973.282502  -1729.455828
PE15   -351.404447 -18202.043374 -23328.670813    766.065350
PE18 -17767.970516 -12816.042829 -20290.756222  -1847.363563
PE19 -26259.947121  13650.916319   -703.353773    491.236631
PE21 -16260.635597  -4539.463211 -24316.626078   -714.456783
PE24   7899.592121  24881.812351  13968.085242  -1365.247020
PE25  16217.830111   4861.977781  24283.272127   -562.087098
PE26 -26297.633654  -9652.288348   9573.190251   -751.649553
PE27  -8705.341176 -23992.081236 -14976.307961   -221.878671
PE30   4741.740101 -28908.193796   4140.092336   -236.522783
PE31  -3908.407607  29184.313586  -3095.804764   -491.524153
PE33 -18420.793609   5444.364245  22534.167100   -459.866471
PE36  26331.622700  10374.840938  -8645.556107   -325.788780
PG01 -21910.490427 -13427.957651   7113.313745    443.216117
PG02  11443.850957  20230.410609  13403.546091   -649.927928
PG03 -13654.952711  -6864.170086  21631.192731   -100.960520
PG04 -23163.669173  -2418.126407  12847.111998   -192.183834
PG05   6788.423450  21312.656773 -14367.991921    -69.810772
PG06  -3776.692901  15498.998700  21291.861388    187.215148
PG07 -19073.772339    509.587646 -18296.585154    306.643296
PG08 -15299.650984  -9093.561985 -19844.887181    -54.320040
PG09 -25451.186901   7186.635305   2569.464041   -356.022151
PG10  11558.582400 -21202.980506 -10574.432668   -307.879509
PG11   9032.350449  21449.557942  12809.740358    -98.618963
PG12  11968.122393  10585.079181  20978.262403   -164.047333
PG13   6789.852633  13909.777292 -21753.457088    254.152206
PG14 -12961.712326  20392.569103 -10955.748802    -78.080612
PG15  16869.013251   7940.040830 -19432.380259    -87.374509
PG16  -1678.496805 -23468.956976 -12108.399778   -463.283623
PG17 -19718.305892  13620.134475  11936.911147    568.870224
PG18  18384.729632   -970.620626 -19183.177351    249.869651
PG19 -13182.945897  14845.037538  17292.251415    112.808672
PG20   2144.751814  26218.549157  -4557.853183    516.917439
PG21 -20755.536768 -16958.837019  -1591.872719    157.209128
PG22   9193.639370 -16154.716480  19298.288869    206.677441
PG23  15036.248150 -11350.596121 -18696.852149      5.745206
PG24  22255.934481  14687.775368   2235.462423    276.338482
PG25  15624.325554  -3370.960598  20885.717250    278.884114
PG26   4631.381138 -25955.364194   1075.430728    179.230032
PG27  -3757.123496 -14563.408037 -22070.766906     97.630017
PG28  -9255.502810  24842.612780  -2496.704865    410.467080
PG29  25884.407813  -3028.748784   5240.100886   -474.354955
PG30 -12627.598060   9650.411499 -21227.269477   -510.428543
PG31   2218.771951 -17142.762707  19909.892641   -162.547482
PG32  15644.744788 -16018.267581  14266.030063    -59.630592
PJ01 -36335.605885  21382.926660   4148.728536    269.925234
PJ02 -21489.692382  28857.897711 -17393.748918     -1.078320
PJ03 -28551.096823  23695.405256  25071.681931     -0.349763
PJ07 -25377.024948  33676.336219    -23.871364     -0.009973
PR01  -5132.714304 -10410.538717  22716.310473      7.083742
PR02 -17914.208843   6333.751486  17095.355703    508.228165
PR03 -18514.552853  17542.193965   1368.512471     50.788749
PR04  -8911.709118  18638.146818 -14944.528786    125.816680
PR05   5598.837335   9543.419301 -22974.726283     86.905250
PR07  18232.951293 -17792.255008   -516.333333     31.209008
PR08   8642.425450 -18682.635992  15100.400472    -63.354927
PR09  12528.742696   4781.255963  21697.413717     37.008337
PR11  -2692.357438 -23953.099018   8366.184573     46.357904
PR12 -10669.796752 -20851.299006 -10052.400948     17.047448
PR13 -12424.698092  -6123.899647 -21438.574514    -17.711300
PR14  -6638.607341  13478.529884 -20605.413941     73.833962
PR15   2757.659015  24189.079379  -7608.962523     98.526109
PR17 -16324.316863   4509.424057  19074.336104    497.501009
PR18    430.692241  10881.134384  23082.156501    105.690121
PR19  15926.715913  12240.598310  15726.786144   -176.458447
PR20  24510.402584   5963.919093  -3608.540815    -64.051000
PR21  15188.972534  -5040.786589 -19865.229423   -274.382822
PR22  -1547.006138 -11092.865434 -22935.630302   -161.676986
PR24 -24640.037036  -4977.020388   4326.906570     78.106803
EOF
